{"type": "FeatureCollection", "features": [ {"type": "Feature", "properties": {"norad_id": 47040, "name": "FENGYUN 1C DEB", "group": "fengyun-1c-debris", "lat": -67.89525932516263, "lon": 63.342923595297876, "alt_km": 853.0864509119292, "timestamp": "2025-12-27T04:40:45.796189+00:00", "meta": {"OBJECT_NAME": "FENGYUN 1C DEB", "OBJECT_ID": "1999-025FBS", "EPOCH": "2025-12-15T23:27:12.170880", "MEAN_MOTION": 14.06493473, "ECCENTRICITY": 0.00627218, "INCLINATION": 100.2945, "RA_OF_ASC_NODE": 257.1831, "ARG_OF_PERICENTER": 223.9582, "MEAN_ANOMALY": 135.6583, "EPHEMERIS_TYPE": 0, "CLASSIFICATION_TYPE": "U", "NORAD_CAT_ID": 47040, "ELEMENT_SET_NO": 999, "REV_AT_EPOCH": 89154, "BSTAR": 0.00050503613, "MEAN_MOTION_DOT": 7.95e-06, "MEAN_MOTION_DDOT": 0}, "tle": {"line1": "1 47040U 99025FBS 25349.97722420  .00000795  00000+0  50504-3 0  9993", "line2": "2 47040 100.2945 257.1831 0062721 223.9582 135.6583 14.06493473891543"}}, "geometry": {"type": "Point", "coordinates": [63.342923595297876, -67.89525932516263]}}, {"type": "Feature", "properties": {"norad_id": 47041, "name": "FENGYUN 1C DEB", "group": "fengyun-1c-debris", "lat": 16.744458427044865, "lon": 26.260570848979686, "alt_km": 548.640068911328, "timestamp": "2025-12-27T04:40:45.796199+00:00", "meta": {"OBJECT_NAME": "FENGYUN 1C DEB", "OBJECT_ID": "1999-025FBT", "EPOCH": "2025-12-23T20:08:36.395232", "MEAN_MOTION": 15.0773069, "ECCENTRICITY": 0.00154517, "INCLINATION": 98.2551, "RA_OF_ASC_NODE": 25.163, "ARG_OF_PERICENTER": 148.8081, "MEAN_ANOMALY": 24.5751, "EPHEMERIS_TYPE": 0, "CLASSIFICATION_TYPE": "U", "NORAD_CAT_ID": 47041, "ELEMENT_SET_NO": 999, "REV_AT_EPOCH": 71356, "BSTAR": 0.0017588298, "MEAN_MOTION_DOT": 0.00026947, "MEAN_MOTION_DDOT": 0}, "tle": {"line1": "1 47041U 99025FBT 25357.83931013  .00026947  00000+0  17588-2 0  9999", "line2": "2 47041  98.2551  25.1630 0015451 148.8081  24.5751 15.07730690713565"}}, "geometry": {"type": "Point", "coordinates": [26.260570848979686, 16.744458427044865]}}, {"type": "Feature", "properties": {"norad_id": 47042, "name": "FENGYUN 1C DEB", "group": "fengyun-1c-debris", "lat": -30.10603776111007, "lon": -95.71338985185899, "alt_km": 785.3124092253975, "timestamp": "2025-12-27T04:40:45.796209+00:00", "meta": {"OBJECT_NAME": "FENGYUN 1C DEB", "OBJECT_ID": "1999-025FBU", "EPOCH": "2025-12-19T12:00:36.072000", "MEAN_MOTION": 14.22844145, "ECCENTRICITY": 0.0055101, "INCLINATION": 99.0013, "RA_OF_ASC_NODE": 251.153, "ARG_OF_PERICENTER": 15.4542, "MEAN_ANOMALY": 162.9996, "EPHEMERIS_TYPE": 0, "CLASSIFICATION_TYPE": "U", "NORAD_CAT_ID": 47042, "ELEMENT_SET_NO": 999, "REV_AT_EPOCH": 62617, "BSTAR": 0.00020738, "MEAN_MOTION_DOT": 4.26e-06, "MEAN_MOTION_DDOT": 0}, "tle": {"line1": "1 47042U 99025FBU 25353.50041750  .00000426  00000+0  20738-3 0  9996", "line2": "2 47042  99.0013 251.1530 0055101  15.4542 162.9996 14.22844145626170"}}, "geometry": {"type": "Point", "coordinates": [-95.71338985185899, -30.10603776111007]}}, {"type": "Feature", "properties": {"norad_id": 47100, "name": "FENGYUN 1C DEB", "group": "fengyun-1c-debris", "lat": 32.88381238794495, "lon": 7.672827348186286, "alt_km": 779.0111193631737, "timestamp": "2025-12-27T04:40:45.796219+00:00", "meta": {"OBJECT_NAME": "FENGYUN 1C DEB", "OBJECT_ID": "1999-025FBY", "EPOCH": "2025-12-26T23:02:19.989312", "MEAN_MOTION": 14.51641488, "ECCENTRICITY": 0.00892022, "INCLINATION": 99.0209, "RA_OF_ASC_NODE": 181.5255, "ARG_OF_PERICENTER": 311.034, "MEAN_ANOMALY": 48.3166, "EPHEMERIS_TYPE": 0, "CLASSIFICATION_TYPE": "U", "NORAD_CAT_ID": 47100, "ELEMENT_SET_NO": 999, "REV_AT_EPOCH": 26974, "BSTAR": 0.0024009549, "MEAN_MOTION_DOT": 0.00010095, "MEAN_MOTION_DDOT": 0}, "tle": {"line1": "1 47100U 99025FBY 25360.95995358  .00010095  00000+0  24010-2 0  9999", "line2": "2 47100  99.0209 181.5255 0089202 311.0340  48.3166 14.51641488269741"}}, "geometry": {"type": "Point", "coordinates": [7.672827348186286, 32.88381238794495]}}, {"type": "Feature", "properties": {"norad_id": 47104, "name": "FENGYUN 1C DEB", "group": "fengyun-1c-debris", "lat": -30.842065461406293, "lon": -154.54546183497487, "alt_km": 829.9233890775176, "timestamp": "2025-12-27T04:40:45.796229+00:00", "meta": {"OBJECT_NAME": "FENGYUN 1C DEB", "OBJECT_ID": "1999-025FCC", "EPOCH": "2025-12-26T20:54:59.612256", "MEAN_MOTION": 14.19440629, "ECCENTRICITY": 0.00400148, "INCLINATION": 98.9078, "RA_OF_ASC_NODE": 30.5029, "ARG_OF_PERICENTER": 295.8122, "MEAN_ANOMALY": 63.8928, "EPHEMERIS_TYPE": 0, "CLASSIFICATION_TYPE": "U", "NORAD_CAT_ID": 47104, "ELEMENT_SET_NO": 999, "REV_AT_EPOCH": 62573, "BSTAR": 0.00024248762, "MEAN_MOTION_DOT": 4.69e-06, "MEAN_MOTION_DDOT": 0}, "tle": {"line1": "1 47104U 99025FCC 25360.87152329  .00000469  00000+0  24249-3 0  9996", "line2": "2 47104  98.9078  30.5029 0040014 295.8122  63.8928 14.19440629625735"}}, "geometry": {"type": "Point", "coordinates": [-154.54546183497487, -30.842065461406293]}}]}